      2.10          N: GNSS NAV DATA                        RINEX VERSION / TYPE
fic2rin                                 04/16/2021 00:17:22 PGM / RUN BY / DATE
                                                            END OF HEADER
14 21  4 15 22  0  0.0 9.577441960573e-05-2.842170943040e-12 0.000000000000e+00
    2.000000000000e+01 9.343750000000e+01 4.682337895311e-09 8.672721657783e-01
    4.868954420090e-06 5.893834168091e-04 3.932043910027e-06 5.153752269745e+03
    4.248000000000e+05 2.980232238770e-08 1.536820750753e+00-1.117587089539e-08
    9.573611041727e-01 3.028750000000e+02 2.494649050981e+00-8.304988793262e-09
    2.982267080537e-10 1.000000000000e+00 2.153000000000e+03 0.000000000000e+00
    3.400000000000e+00 0.000000000000e+00-7.916241884232e-09 2.000000000000e+01
    4.176000000000e+05 4.000000000000e+00
15 21  4 15 22  0  0.0-1.559318043292e-04 2.614797267597e-12 0.000000000000e+00
    6.600000000000e+01-2.181250000000e+01 5.387724420348e-09 2.924398431904e+00
   -1.182779669762e-06 1.308963808697e-02 5.612149834633e-06 5.153589216232e+03
    4.248000000000e+05 8.009374141693e-08-7.171578187418e-01-1.117587089539e-07
    9.288380432499e-01 2.529062500000e+02 9.760064822447e-01-8.213556413307e-09
   -2.153661137202e-10 1.000000000000e+00 2.153000000000e+03 0.000000000000e+00
    2.400000000000e+00 0.000000000000e+00-1.071020960808e-08 6.600000000000e+01
    4.176000000000e+05 4.000000000000e+00
25 21  4 15 22  0  0.0 1.192600466311e-04 7.275957614183e-12 0.000000000000e+00
    3.700000000000e+01 9.243750000000e+01 4.675909056095e-09 1.847586097663e-02
    4.783272743225e-06 9.925278718583e-03 5.157664418221e-06 5.153643280029e+03
    4.248000000000e+05-2.980232238770e-08 1.490317445018e+00 1.322478055954e-07
    9.612288386737e-01 2.857187500000e+02 9.638120126047e-01-8.395706857747e-09
    2.803688213439e-10 1.000000000000e+00 2.153000000000e+03 0.000000000000e+00
    2.400000000000e+00 0.000000000000e+00 5.587935447693e-09 3.700000000000e+01
    4.176000000000e+05 4.000000000000e+00
30 21  4 15 22  0  0.0-4.133242182434e-04-5.229594535194e-12 0.000000000000e+00
    8.100000000000e+01 5.712500000000e+01 4.709124725375e-09 9.445085013360e-01
    3.043562173843e-06 5.089135956950e-03 1.029483973980e-05 5.153725601196e+03
    4.248000000000e+05-4.097819328308e-08 4.708690193904e-01 1.061707735062e-07
    9.374628640397e-01 1.688437500000e+02-2.812569476088e+00-8.039263439020e-09
   -2.160804291886e-10 1.000000000000e+00 2.153000000000e+03 0.000000000000e+00
    2.400000000000e+00 0.000000000000e+00 3.725290298462e-09 8.100000000000e+01
    4.176000000000e+05 4.000000000000e+00
22 21  4 15 22  0  0.0-6.370623596013e-04 8.753886504564e-12 0.000000000000e+00
    8.700000000000e+01 2.121875000000e+01 5.195930717085e-09 2.861118099293e+00
    1.104548573494e-06 7.068498758599e-03 7.489696145058e-06 5.153558572769e+03
    4.248000000000e+05 4.842877388000e-08-1.747531626724e+00 1.061707735062e-07
    9.340542458971e-01 2.186562500000e+02-9.945839677516e-01-8.217127990649e-09
    3.182275411687e-10 1.000000000000e+00 2.153000000000e+03 0.000000000000e+00
    2.400000000000e+00 0.000000000000e+00-1.816079020500e-08 8.700000000000e+01
    4.176000000000e+05 4.000000000000e+00
32 21  4 15 22  0  0.0 2.208771184087e-05 0.000000000000e+00 0.000000000000e+00
    9.000000000000e+01-2.396875000000e+01 4.732339978098e-09-1.709442058792e+00
   -1.240521669388e-06 4.859352251515e-03 6.215646862984e-06 5.153652753830e+03
    4.248000000000e+05 8.568167686462e-08-6.093477036977e-01-1.192092895508e-07
    9.572694055417e-01 2.603437500000e+02-2.386624213210e+00-8.028548706994e-09
   -2.946551307118e-10 1.000000000000e+00 2.153000000000e+03 0.000000000000e+00
    2.400000000000e+00 0.000000000000e+00 4.656612873077e-10 9.000000000000e+01
    4.176000000000e+05 4.000000000000e+00
21 21  4 15 22  0  0.0 1.112516038120e-04 2.842170943040e-12 0.000000000000e+00
    1.020000000000e+02-5.990625000000e+01 4.361967407737e-09-2.257172618517e+00
   -2.797693014145e-06 2.416036871728e-02 9.989365935326e-06 5.153702062607e+03
    4.248000000000e+05 9.872019290924e-08-2.769901287632e+00 4.526227712631e-07
    9.570466762641e-01 1.785625000000e+02-1.154182620430e+00-7.567100914412e-09
    4.928776731906e-11 1.000000000000e+00 2.153000000000e+03 0.000000000000e+00
    2.400000000000e+00 0.000000000000e+00-1.024454832077e-08 1.020000000000e+02
    4.176000000000e+05 4.000000000000e+00
26 21  4 15 22  0  0.0 7.264595478773e-05 5.115907697473e-12 0.000000000000e+00
    6.000000000000e+01 8.825000000000e+01 4.964135347591e-09-6.690285322266e-01
    4.734843969345e-06 5.783846019767e-03 4.449859261513e-06 5.153792549133e+03
    4.248000000000e+05 8.754432201385e-08 1.448990793403e+00-1.117587089539e-08
    9.421953689161e-01 2.802187500000e+02 3.037392541991e-01-8.468924193258e-09
    2.900120801672e-10 1.000000000000e+00 2.153000000000e+03 0.000000000000e+00
    2.400000000000e+00 0.000000000000e+00 6.984919309616e-09 6.000000000000e+01
    4.176000000000e+05 4.000000000000e+00
17 21  4 15 22  0  0.0 4.269694909453e-04 6.139089236967e-12 0.000000000000e+00
    1.260000000000e+02-7.628125000000e+01 4.218032840856e-09-2.452927677735e+00
   -3.710389137268e-06 1.336637267377e-02 3.458932042122e-06 5.153582565308e+03
    4.248000000000e+05 1.061707735062e-07 2.599574423235e+00 1.471489667892e-07
    9.824597401231e-01 3.207187500000e+02-1.570394545122e+00-7.899971922683e-09
   -1.078616357272e-10 1.000000000000e+00 2.153000000000e+03 0.000000000000e+00
    2.400000000000e+00 0.000000000000e+00-1.117587089539e-08 1.260000000000e+02
    4.176000000000e+05 4.000000000000e+00
23 21  4 15 22  0  0.0 1.132832840085e-04-2.160049916711e-12 0.000000000000e+00
    1.370000000000e+02 5.687500000000e+00 4.613406452611e-09 1.284238890367e+00
    2.495944499969e-07 1.101907808334e-03 7.238239049911e-06 5.153646251678e+03
    4.248000000000e+05 4.284083843231e-08-1.675652110962e+00-2.980232238770e-08
    9.633836935978e-01 2.391250000000e+02 2.551174325714e+00-8.001761876929e-09
    2.671539851787e-10 1.000000000000e+00 2.153000000000e+03 0.000000000000e+00
    2.400000000000e+00 0.000000000000e+00-8.381903171539e-09 6.490000000000e+02
    4.176000000000e+05 4.000000000000e+00
18 21  4 15 22  0  0.0 3.516203723848e-04-1.136868377216e-13 0.000000000000e+00
    1.130000000000e+02-7.143750000000e+01 4.293393122771e-09 1.885441034016e+00
   -3.555789589882e-06 1.282588462345e-03 9.415671229362e-06 5.153674058914e+03
    4.248000000000e+05 7.264316082001e-08-2.674980169901e+00 2.980232238770e-08
    9.678640645432e-01 2.026875000000e+02 2.958540548003e+00-7.863898991529e-09
    4.964492505326e-11 1.000000000000e+00 2.153000000000e+03 0.000000000000e+00
    2.400000000000e+00 0.000000000000e+00-8.381903171539e-09 3.690000000000e+02
    4.176000000000e+05 4.000000000000e+00
24 21  4 15 22  0  0.0 8.763279765844e-06 3.501554601826e-11 0.000000000000e+00
    4.600000000000e+01 3.684375000000e+01 4.795199739317e-09 2.019301958889e+00
    1.857057213783e-06 1.103299576789e-02 1.074932515621e-05 5.153741931915e+03
    4.248000000000e+05-2.570450305939e-07 3.755307856789e-01-1.545995473862e-07
    9.356500627693e-01 1.572812500000e+02 7.390448857631e-01-8.087479733136e-09
   -2.492960984689e-10 1.000000000000e+00 2.153000000000e+03 0.000000000000e+00
    2.400000000000e+00 6.300000000000e+01 2.793967723846e-09 4.600000000000e+01
    4.176000000000e+05 4.000000000000e+00
28 21  4 15 22  0  0.0 5.862214602530e-04-5.798028723802e-12 0.000000000000e+00
    5.800000000000e+01 9.334375000000e+01 4.295178911442e-09-1.727808335501e+00
    5.284324288368e-06 1.748166466132e-02 3.695487976074e-06 5.154317766190e+03
    4.248000000000e+05-4.656612873077e-08 1.585677168996e+00 4.284083843231e-07
    9.730216758584e-01 3.180625000000e+02-1.341077547023e+00-8.104980462112e-09
    2.957266039144e-10 1.000000000000e+00 2.153000000000e+03 0.000000000000e+00
    4.850000000000e+00 0.000000000000e+00-1.117587089539e-08 5.800000000000e+01
    4.176000000000e+05 4.000000000000e+00
14 21  4 15 22 44 32.0 9.576696902514e-05-2.842170943040e-12 0.000000000000e+00
    2.100000000000e+01 9.234375000000e+01 4.667337270474e-09 1.257265362515e+00
    4.785135388374e-06 5.892931949347e-04 4.008412361145e-06 5.153751922607e+03
    4.274720000000e+05 4.097819328308e-08 1.536798647524e+00 2.235174179077e-08
    9.573619702202e-01 3.018750000000e+02 2.494372300527e+00-8.282487856007e-09
    2.896549224330e-10 1.000000000000e+00 2.153000000000e+03 0.000000000000e+00
    2.400000000000e+00 0.000000000000e+00-7.916241884232e-09 2.100000000000e+01
    4.203000000000e+05 4.000000000000e+00
28 21  4 15 21 59 44.0 5.862168036401e-04-5.798028723802e-12 0.000000000000e+00
    0.000000000000e+00 9.334375000000e+01 4.295178911442e-09-1.730140975933e+00
    5.284324288368e-06 1.748166268226e-02 3.695487976074e-06 5.154317760468e+03
    4.247840000000e+05-4.656612873077e-08 1.585677284567e+00 4.284083843231e-07
    9.730216714697e-01 3.180625000000e+02-1.341077674297e+00-8.104980462112e-09
    2.957266039144e-10 1.000000000000e+00 2.153000000000e+03 0.000000000000e+00
    2.400000000000e+00 0.000000000000e+00-1.117587089539e-08 0.000000000000e+00
    4.212000000000e+05 4.000000000000e+00
28 21  4 15 23 59 44.0 5.861748941243e-04-5.798028723802e-12 0.000000000000e+00
    1.000000000000e+00 7.512500000000e+01 4.434113270044e-09-6.805030164935e-01
    3.932043910027e-06 1.748067419976e-02 4.306435585022e-06 5.154312425613e+03
    4.319840000000e+05-2.402812242508e-07 1.585616626131e+00 8.381903171539e-08
    9.730229910218e-01 3.101875000000e+02-1.340927216098e+00-8.413921902191e-09
    3.968022426918e-10 1.000000000000e+00 2.153000000000e+03 0.000000000000e+00
    2.400000000000e+00 0.000000000000e+00-1.117587089539e-08 1.000000000000e+00
    4.248000000000e+05 4.000000000000e+00
